[
    {
        "Altitude(m)": 567387.2310341832,
        "Argument of Periapsis(deg)": -0.007534386927657468,
        "Eccentricity": 0.0,
        "Inclination(deg)": 97.0,
        "Latitude(deg)": -5.78488310277167,
        "Longitude(deg)": -131.46996909482954,
        "Mean Anomaly(deg)": 185.67714775639587,
        "RAAN(deg)": 150.00198235120618,
        "Satellite Name": "Starlink Shell 3 1902",
        "Satellite Number": 1902,
        "Semi-Major Axis(m)": 6938478.169268562,
        "Time(s)": 190
    },
    {
        "Altitude(m)": 567509.4098614365,
        "Argument of Periapsis(deg)": -0.007930933608060494,
        "Eccentricity": 0.0,
        "Inclination(deg)": 97.0,
        "Latitude(deg)": -6.408989632697845,
        "Longitude(deg)": -131.58873525752315,
        "Mean Anomaly(deg)": 186.30262395410085,
        "RAAN(deg)": 150.00208668548018,
        "Satellite Name": "Starlink Shell 3 1902",
        "Satellite Number": 1902,
        "Semi-Major Axis(m)": 6938478.169268562,
        "Time(s)": 200
    },
    {
        "Altitude(m)": 567635.6720752891,
        "Argument of Periapsis(deg)": -0.008327480288463517,
        "Eccentricity": 0.0,
        "Inclination(deg)": 97.0,
        "Latitude(deg)": -7.033050838099801,
        "Longitude(deg)": -131.70768596451947,
        "Mean Anomaly(deg)": 186.92810015180595,
        "RAAN(deg)": 150.0021910197542,
        "Satellite Name": "Starlink Shell 3 1902",
        "Satellite Number": 1902,
        "Semi-Major Axis(m)": 6938478.169268562,
        "Time(s)": 210
    },
    {
        "Altitude(m)": 567765.9856599106,
        "Argument of Periapsis(deg)": -0.008724026968866542,
        "Eccentricity": 0.0,
        "Inclination(deg)": 97.0,
        "Latitude(deg)": -7.657063741284079,
        "Longitude(deg)": -131.8268402239357,
        "Mean Anomaly(deg)": 187.55357634951096,
        "RAAN(deg)": 150.0022953540282,
        "Satellite Name": "Starlink Shell 3 1902",
        "Satellite Number": 1902,
        "Semi-Major Axis(m)": 6938478.169268562,
        "Time(s)": 220
    },
    {
        "Altitude(m)": 567900.3166058855,
        "Argument of Periapsis(deg)": -0.009120573649269567,
        "Eccentricity": 0.0,
        "Inclination(deg)": 97.0,
        "Latitude(deg)": -8.281025365394155,
        "Longitude(deg)": -131.94621723681018,
        "Mean Anomaly(deg)": 188.179052547216,
        "RAAN(deg)": 150.0023996883022,
        "Satellite Name": "Starlink Shell 3 1902",
        "Satellite Number": 1902,
        "Semi-Major Axis(m)": 6938478.169268562,
        "Time(s)": 230
    },
    {
        "Altitude(m)": 568038.6289240883,
        "Argument of Periapsis(deg)": -0.009517120329672592,
        "Eccentricity": 0.0,
        "Inclination(deg)": 97.0,
        "Latitude(deg)": -8.904932734153954,
        "Longitude(deg)": -132.06583591174973,
        "Mean Anomaly(deg)": 188.8045287449211,
        "RAAN(deg)": 150.0025040225762,
        "Satellite Name": "Starlink Shell 3 1902",
        "Satellite Number": 1902,
        "Semi-Major Axis(m)": 6938478.169268562,
        "Time(s)": 240
    },
    {
        "Altitude(m)": 568180.8846606134,
        "Argument of Periapsis(deg)": -0.009913667010075618,
        "Eccentricity": 0.0,
        "Inclination(deg)": 97.0,
        "Latitude(deg)": -9.528782871575554,
        "Longitude(deg)": -132.18571589287953,
        "Mean Anomaly(deg)": 189.43000494262608,
        "RAAN(deg)": 150.00260835685023,
        "Satellite Name": "Starlink Shell 3 1902",
        "Satellite Number": 1902,
        "Semi-Major Axis(m)": 6938478.169268562,
        "Time(s)": 250
    },
    {
        "Altitude(m)": 568327.0439126826,
        "Argument of Periapsis(deg)": -0.010310213690478642,
        "Eccentricity": 0.0,
        "Inclination(deg)": 97.0,
        "Latitude(deg)": -10.152572801632923,
        "Longitude(deg)": -132.30587707539127,
        "Mean Anomaly(deg)": 190.05548114033118,
        "RAAN(deg)": 150.00271269112426,
        "Satellite Name": "Starlink Shell 3 1902",
        "Satellite Number": 1902,
        "Semi-Major Axis(m)": 6938478.169268562,
        "Time(s)": 260
    },
    {
        "Altitude(m)": 568477.0648455303,
        "Argument of Periapsis(deg)": -0.010706760370881667,
        "Eccentricity": 0.0,
        "Inclination(deg)": 97.0,
        "Latitude(deg)": -10.776299547894066,
        "Longitude(deg)": -132.42633912160554,
        "Mean Anomaly(deg)": 190.6809573380362,
        "RAAN(deg)": 150.00281702539826,
        "Satellite Name": "Starlink Shell 3 1902",
        "Satellite Number": 1902,
        "Semi-Major Axis(m)": 6938478.169268562,
        "Time(s)": 270
    },
    {
        "Altitude(m)": 568630.9037102456,
        "Argument of Periapsis(deg)": -0.011103307051284692,
        "Eccentricity": 0.0,
        "Inclination(deg)": 97.0,
        "Latitude(deg)": -11.399960133108888,
        "Longitude(deg)": -132.5471224904682,
        "Mean Anomaly(deg)": 191.30643353574123,
        "RAAN(deg)": 150.00292135967229,
        "Satellite Name": "Starlink Shell 3 1902",
        "Satellite Number": 1902,
        "Semi-Major Axis(m)": 6938478.169268562,
        "Time(s)": 280
    },
    {
        "Altitude(m)": 568788.5148626207,
        "Argument of Periapsis(deg)": -0.011499853731687715,
        "Eccentricity": 0.0,
        "Inclination(deg)": 97.0,
        "Latitude(deg)": -12.02355157875169,
        "Longitude(deg)": -132.6682479547813,
        "Mean Anomaly(deg)": 191.93190973344633,
        "RAAN(deg)": 150.00302569394628,
        "Satellite Name": "Starlink Shell 3 1902",
        "Satellite Number": 1902,
        "Semi-Major Axis(m)": 6938478.169268562,
        "Time(s)": 290
    },
    {
        "Altitude(m)": 568949.8507828917,
        "Argument of Periapsis(deg)": -0.011896400412090741,
        "Eccentricity": 0.0,
        "Inclination(deg)": 97.0,
        "Latitude(deg)": -12.647070904512944,
        "Longitude(deg)": -132.7897361190905,
        "Mean Anomaly(deg)": 192.55738593115137,
        "RAAN(deg)": 150.00313002822026,
        "Satellite Name": "Starlink Shell 3 1902",
        "Satellite Number": 1902,
        "Semi-Major Axis(m)": 6938478.169268562,
        "Time(s)": 300
    },
    {
        "Altitude(m)": 569114.8620964694,
        "Argument of Periapsis(deg)": -0.012292947092493765,
        "Eccentricity": 0.0,
        "Inclination(deg)": 97.0,
        "Latitude(deg)": -13.270515127735646,
        "Longitude(deg)": -132.91160845115596,
        "Mean Anomaly(deg)": 193.18286212885633,
        "RAAN(deg)": 150.00323436249428,
        "Satellite Name": "Starlink Shell 3 1902",
        "Satellite Number": 1902,
        "Semi-Major Axis(m)": 6938478.169268562,
        "Time(s)": 310
    },
    {
        "Altitude(m)": 569283.4975955613,
        "Argument of Periapsis(deg)": -0.012689493772896788,
        "Eccentricity": 0.0,
        "Inclination(deg)": 97.0,
        "Latitude(deg)": -13.893881262795064,
        "Longitude(deg)": -133.0338868013133,
        "Mean Anomaly(deg)": 193.80833832656145,
        "RAAN(deg)": 150.0033386967683,
        "Satellite Name": "Starlink Shell 3 1902",
        "Satellite Number": 1902,
        "Semi-Major Axis(m)": 6938478.169268562,
        "Time(s)": 320
    },
    {
        "Altitude(m)": 569455.7042617346,
        "Argument of Periapsis(deg)": -0.013086040453299813,
        "Eccentricity": 0.0,
        "Inclination(deg)": 97.0,
        "Latitude(deg)": -14.517166320416349,
        "Longitude(deg)": -133.1565929226556,
        "Mean Anomaly(deg)": 194.43381452426644,
        "RAAN(deg)": 150.0034430310423,
        "Satellite Name": "Starlink Shell 3 1902",
        "Satellite Number": 1902,
        "Semi-Major Axis(m)": 6938478.169268562,
        "Time(s)": 330
    },
    {
        "Altitude(m)": 569631.4272893664,
        "Argument of Periapsis(deg)": -0.01348258713370284,
        "Eccentricity": 0.0,
        "Inclination(deg)": 97.0,
        "Latitude(deg)": -15.140367306924926,
        "Longitude(deg)": -133.2797495049708,
        "Mean Anomaly(deg)": 195.05929072197148,
        "RAAN(deg)": 150.0035473653163,
        "Satellite Name": "Starlink Shell 3 1902",
        "Satellite Number": 1902,
        "Semi-Major Axis(m)": 6938478.169268562,
        "Time(s)": 340
    },
    {
        "Altitude(m)": 569810.6101099678,
        "Argument of Periapsis(deg)": -0.013879133814105863,
        "Eccentricity": 0.0,
        "Inclination(deg)": 97.0,
        "Latitude(deg)": -15.763481223427338,
        "Longitude(deg)": -133.40337969675093,
        "Mean Anomaly(deg)": 195.6847669196766,
        "RAAN(deg)": 150.0036516995903,
        "Satellite Name": "Starlink Shell 3 1902",
        "Satellite Number": 1902,
        "Semi-Major Axis(m)": 6938478.169268562,
        "Time(s)": 350
    },
    {
        "Altitude(m)": 569993.1944174194,
        "Argument of Periapsis(deg)": -0.01427568049450889,
        "Eccentricity": 0.0,
        "Inclination(deg)": 97.0,
        "Latitude(deg)": -16.386505064916626,
        "Longitude(deg)": -133.5275066282138,
        "Mean Anomaly(deg)": 196.31024311738156,
        "RAAN(deg)": 150.00375603386433,
        "Satellite Name": "Starlink Shell 3 1902",
        "Satellite Number": 1902,
        "Semi-Major Axis(m)": 6938478.169268562,
        "Time(s)": 360
    },
    {
        "Altitude(m)": 570179.1201940312,
        "Argument of Periapsis(deg)": -0.014672227174911913,
        "Eccentricity": 0.0,
        "Inclination(deg)": 97.0,
        "Latitude(deg)": -17.00943581929692,
        "Longitude(deg)": -133.6521544482829,
        "Mean Anomaly(deg)": 196.9357193150867,
        "RAAN(deg)": 150.00386036813833,
        "Satellite Name": "Starlink Shell 3 1902",
        "Satellite Number": 1902,
        "Semi-Major Axis(m)": 6938478.169268562,
        "Time(s)": 370
    }
]